{
  "type": "FeatureCollection",
  "features": [
    {
      "type": "Feature",
      "properties": {
        "norad_id": 30118,
        "name": "FENGYUN 1C DEB",
        "group": "fengyun-1c-debris",
        "lat": 42.604313812780305,
        "lon": -16.62796103187464,
        "alt_km": 812.2798883885634,
        "timestamp": "2025-12-13T20:38:51.278898+00:00",
        "meta_object_name": "FENGYUN 1C DEB",
        "meta_object_id": "1999-025RX",
        "meta_epoch": "2025-12-13T00:13:16.872384",
        "meta_mean_motion": 14.05123559,
        "meta_eccentricity": 0.00853355,
        "meta_inclination": 98.8035,
        "meta_ra_of_asc_node": 350.7398,
        "meta_arg_of_pericenter": 59.0784,
        "meta_mean_anomaly": 1.6424,
        "meta_ephemeris_type": 0,
        "meta_classification_type": "U",
        "meta_norad_cat_id": 30118,
        "meta_element_set_no": 999,
        "meta_rev_at_epoch": 96935,
        "meta_bstar": 0.00014078196,
        "meta_mean_motion_dot": 1.92e-06,
        "meta_mean_motion_ddot": 0,
        "tle_line1": "1 30118U 99025RX  25347.00922306  .00000192  00000+0  14078-3 0  9995",
        "tle_line2": "2 30118  98.8035 350.7398 0085335  59.0784   1.6424 14.05123559969354"
      },
      "geometry": {
        "type": "Point",
        "coordinates": [
          -16.62796103187464,
          42.604313812780305
        ]
      }
    },
    {
      "type": "Feature",
      "properties": {
        "norad_id": 30119,
        "name": "FENGYUN 1C DEB",
        "group": "fengyun-1c-debris",
        "lat": 50.544970265479,
        "lon": -28.016395871517254,
        "alt_km": 861.7276763103955,
        "timestamp": "2025-12-13T20:38:51.278908+00:00",
        "meta_object_name": "FENGYUN 1C DEB",
        "meta_object_id": "1999-025RY",
        "meta_epoch": "2025-12-13T05:30:06.254784",
        "meta_mean_motion": 14.22247031,
        "meta_eccentricity": 0.01310835,
        "meta_inclination": 97.9204,
        "meta_ra_of_asc_node": 341.1546,
        "meta_arg_of_pericenter": 291.4696,
        "meta_mean_anomaly": 129.2222,
        "meta_ephemeris_type": 0,
        "meta_classification_type": "U",
        "meta_norad_cat_id": 30119,
        "meta_element_set_no": 999,
        "meta_rev_at_epoch": 97187,
        "meta_bstar": 0.0026592719,
        "meta_mean_motion_dot": 6.41e-05,
        "meta_mean_motion_ddot": 0,
        "tle_line1": "1 30119U 99025RY  25347.22923906  .00006410  00000+0  26593-2 0  9990",
        "tle_line2": "2 30119  97.9204 341.1546 0131083 291.4696 129.2222 14.22247031971872"
      },
      "geometry": {
        "type": "Point",
        "coordinates": [
          -28.016395871517254,
          50.544970265479
        ]
      }
    },
    {
      "type": "Feature",
      "properties": {
        "norad_id": 30120,
        "name": "FENGYUN 1C DEB",
        "group": "fengyun-1c-debris",
        "lat": 31.81051062686888,
        "lon": 64.22471087244602,
        "alt_km": 843.349327941598,
        "timestamp": "2025-12-13T20:38:51.278919+00:00",
        "meta_object_name": "FENGYUN 1C DEB",
        "meta_object_id": "1999-025RZ",
        "meta_epoch": "2025-12-12T18:10:03.216288",
        "meta_mean_motion": 14.27606033,
        "meta_eccentricity": 0.00635945,
        "meta_inclination": 98.852,
        "meta_ra_of_asc_node": 68.6545,
        "meta_arg_of_pericenter": 211.4897,
        "meta_mean_anomaly": 273.6137,
        "meta_ephemeris_type": 0,
        "meta_classification_type": "U",
        "meta_norad_cat_id": 30120,
        "meta_element_set_no": 999,
        "meta_rev_at_epoch": 97371,
        "meta_bstar": 0.0029496065,
        "meta_mean_motion_dot": 7.381e-05,
        "meta_mean_motion_ddot": 0,
        "tle_line1": "1 30120U 99025RZ  25346.75698167  .00007381  00000+0  29496-2 0  9990",
        "tle_line2": "2 30120  98.8520  68.6545 0063594 211.4897 273.6137 14.27606033973711"
      },
      "geometry": {
        "type": "Point",
        "coordinates": [
          64.22471087244602,
          31.81051062686888
        ]
      }
    },
    {
      "type": "Feature",
      "properties": {
        "norad_id": 30121,
        "name": "FENGYUN 1C DEB",
        "group": "fengyun-1c-debris",
        "lat": -20.771910388735815,
        "lon": 14.433380978247751,
        "alt_km": 785.7870337435861,
        "timestamp": "2025-12-13T20:38:51.278929+00:00",
        "meta_object_name": "FENGYUN 1C DEB",
        "meta_object_id": "1999-025SA",
        "meta_epoch": "2025-12-13T07:31:07.664160",
        "meta_mean_motion": 14.4001173,
        "meta_eccentricity": 0.00312914,
        "meta_inclination": 102.1659,
        "meta_ra_of_asc_node": 8.9658,
        "meta_arg_of_pericenter": 163.7011,
        "meta_mean_anomaly": 220.697,
        "meta_ephemeris_type": 0,
        "meta_classification_type": "U",
        "meta_norad_cat_id": 30121,
        "meta_element_set_no": 999,
        "meta_rev_at_epoch": 97548,
        "meta_bstar": 0.0035373196,
        "meta_mean_motion_dot": 0.00011155,
        "meta_mean_motion_ddot": 0,
        "tle_line1": "1 30121U 99025SA  25347.31328315  .00011155  00000+0  35373-2 0  9994",
        "tle_line2": "2 30121 102.1659   8.9658 0031291 163.7011 220.6970 14.40011730975484"
      },
      "geometry": {
        "type": "Point",
        "coordinates": [
          14.433380978247751,
          -20.771910388735815
        ]
      }
    },
    {
      "type": "Feature",
      "properties": {
        "norad_id": 30123,
        "name": "FENGYUN 1C DEB",
        "group": "fengyun-1c-debris",
        "lat": 56.39482764650967,
        "lon": -82.44736271176457,
        "alt_km": 648.1535241709107,
        "timestamp": "2025-12-13T20:38:51.278940+00:00",
        "meta_object_name": "FENGYUN 1C DEB",
        "meta_object_id": "1999-025SC",
        "meta_epoch": "2025-12-13T06:54:57.398112",
        "meta_mean_motion": 14.25984679,
        "meta_eccentricity": 0.02306322,
        "meta_inclination": 96.9261,
        "meta_ra_of_asc_node": 287.6391,
        "meta_arg_of_pericenter": 83.162,
        "meta_mean_anomaly": 279.5744,
        "meta_ephemeris_type": 0,
        "meta_classification_type": "U",
        "meta_norad_cat_id": 30123,
        "meta_element_set_no": 999,
        "meta_rev_at_epoch": 97255,
        "meta_bstar": 0.0025760381,
        "meta_mean_motion_dot": 8.107e-05,
        "meta_mean_motion_ddot": 0,
        "tle_line1": "1 30123U 99025SC  25347.28816433  .00008107  00000+0  25760-2 0  9997",
        "tle_line2": "2 30123  96.9261 287.6391 0230632  83.1620 279.5744 14.25984679972557"
      },
      "geometry": {
        "type": "Point",
        "coordinates": [
          -82.44736271176457,
          56.39482764650967
        ]
      }
    },
    {
      "type": "Feature",
      "properties": {
        "norad_id": 30124,
        "name": "FENGYUN 1C DEB",
        "group": "fengyun-1c-debris",
        "lat": -64.29893109625944,
        "lon": 61.275230025469384,
        "alt_km": 953.4738185536353,
        "timestamp": "2025-12-13T20:38:51.278950+00:00",
        "meta_object_name": "FENGYUN 1C DEB",
        "meta_object_id": "1999-025SD",
        "meta_epoch": "2025-12-13T02:22:52.847328",
        "meta_mean_motion": 14.14232904,
        "meta_eccentricity": 0.01433253,
        "meta_inclination": 99.1319,
        "meta_ra_of_asc_node": 40.9735,
        "meta_arg_of_pericenter": 104.8132,
        "meta_mean_anomaly": 276.9286,
        "meta_ephemeris_type": 0,
        "meta_classification_type": "U",
        "meta_norad_cat_id": 30124,
        "meta_element_set_no": 999,
        "meta_rev_at_epoch": 96920,
        "meta_bstar": 0.0014079744,
        "meta_mean_motion_dot": 2.921e-05,
        "meta_mean_motion_ddot": 0,
        "tle_line1": "1 30124U 99025SD  25347.09922277  .00002921  00000+0  14080-2 0  9992",
        "tle_line2": "2 30124  99.1319  40.9735 0143325 104.8132 276.9286 14.14232904969205"
      },
      "geometry": {
        "type": "Point",
        "coordinates": [
          61.275230025469384,
          -64.29893109625944
        ]
      }
    },
    {
      "type": "Feature",
      "properties": {
        "norad_id": 30125,
        "name": "FENGYUN 1C DEB",
        "group": "fengyun-1c-debris",
        "lat": 53.74128854035477,
        "lon": -81.26544444923593,
        "alt_km": 1008.3642970057963,
        "timestamp": "2025-12-13T20:38:51.278960+00:00",
        "meta_object_name": "FENGYUN 1C DEB",
        "meta_object_id": "1999-025SE",
        "meta_epoch": "2025-12-13T06:52:08.340960",
        "meta_mean_motion": 14.22659443,
        "meta_eccentricity": 0.03422211,
        "meta_inclination": 98.7232,
        "meta_ra_of_asc_node": 86.082,
        "meta_arg_of_pericenter": 342.6015,
        "meta_mean_anomaly": 81.6571,
        "meta_ephemeris_type": 0,
        "meta_classification_type": "U",
        "meta_norad_cat_id": 30125,
        "meta_element_set_no": 999,
        "meta_rev_at_epoch": 96929,
        "meta_bstar": 0.001151197,
        "meta_mean_motion_dot": 4.657e-05,
        "meta_mean_motion_ddot": 0,
        "tle_line1": "1 30125U 99025SE  25347.28620765  .00004657  00000+0  11512-2 0  9996",
        "tle_line2": "2 30125  98.7232  86.0820 0342221 342.6015  81.6571 14.22659443969296"
      },
      "geometry": {
        "type": "Point",
        "coordinates": [
          -81.26544444923593,
          53.74128854035477
        ]
      }
    }
  ]
}